CCSDS_OMM_VERS = 2.0
CREATION_DATE  = 
ORIGINATOR     = 

OBJECT_NAME    = ALOS (DAICHI)
OBJECT_ID      = 2006-002A
CENTER_NAME    = EARTH
REF_FRAME      = TEME
TIME_SYSTEM    = UTC
MEAN_ELEMENT_THEORY = SGP/SGP4

EPOCH          = 2025-12-06T20:08:51.129888
MEAN_MOTION    = 14.69460670
ECCENTRICITY   = .00008397
INCLINATION    = 98.1085
RA_OF_ASC_NODE = 292.3685
ARG_OF_PERICENTER = 112.0733
MEAN_ANOMALY   = 248.0562

EPHEMERIS_TYPE = 0
CLASSIFICATION_TYPE = U
NORAD_CAT_ID   = 28931
ELEMENT_SET_NO = 999
REV_AT_EPOCH   = 5984
BSTAR          = .51056561E-3
MEAN_MOTION_DOT = .2976E-4
MEAN_MOTION_DDOT = 0

CCSDS_OMM_VERS = 2.0
CREATION_DATE  = 
ORIGINATOR     = 

OBJECT_NAME    = H-2A R/B
OBJECT_ID      = 2006-002B
CENTER_NAME    = EARTH
REF_FRAME      = TEME
TIME_SYSTEM    = UTC
MEAN_ELEMENT_THEORY = SGP/SGP4

EPOCH          = 2025-12-06T21:43:17.561568
MEAN_MOTION    = 15.14389053
ECCENTRICITY   = .00544636
INCLINATION    = 98.2320
RA_OF_ASC_NODE = 115.1783
ARG_OF_PERICENTER = 196.1021
MEAN_ANOMALY   = 163.8480

EPHEMERIS_TYPE = 0
CLASSIFICATION_TYPE = U
NORAD_CAT_ID   = 28932
ELEMENT_SET_NO = 999
REV_AT_EPOCH   = 8038
BSTAR          = .8247989E-3
MEAN_MOTION_DOT = .1565E-3
MEAN_MOTION_DDOT = 0

CCSDS_OMM_VERS = 2.0
CREATION_DATE  = 
ORIGINATOR     = 

OBJECT_NAME    = RESURS-DK 1
OBJECT_ID      = 2006-021A
CENTER_NAME    = EARTH
REF_FRAME      = TEME
TIME_SYSTEM    = UTC
MEAN_ELEMENT_THEORY = SGP/SGP4

EPOCH          = 2025-12-06T19:27:22.890240
MEAN_MOTION    = 15.12110904
ECCENTRICITY   = .00077341
INCLINATION    = 69.9341
RA_OF_ASC_NODE = 117.1593
ARG_OF_PERICENTER = 263.3376
MEAN_ANOMALY   = 96.6910

EPHEMERIS_TYPE = 0
CLASSIFICATION_TYPE = U
NORAD_CAT_ID   = 29228
ELEMENT_SET_NO = 999
REV_AT_EPOCH   = 7348
BSTAR          = .30168792E-3
MEAN_MOTION_DOT = .5106E-4
MEAN_MOTION_DDOT = 0

CCSDS_OMM_VERS = 2.0
CREATION_DATE  = 
ORIGINATOR     = 

OBJECT_NAME    = CZ-4B R/B
OBJECT_ID      = 2006-046C
CENTER_NAME    = EARTH
REF_FRAME      = TEME
TIME_SYSTEM    = UTC
MEAN_ELEMENT_THEORY = SGP/SGP4

EPOCH          = 2025-12-06T19:52:16.906944
MEAN_MOTION    = 15.15782034
ECCENTRICITY   = .00328678
INCLINATION    = 97.5736
RA_OF_ASC_NODE = 20.9824
ARG_OF_PERICENTER = 227.4827
MEAN_ANOMALY   = 132.3629

EPHEMERIS_TYPE = 0
CLASSIFICATION_TYPE = U
NORAD_CAT_ID   = 29507
ELEMENT_SET_NO = 999
REV_AT_EPOCH   = 4597
BSTAR          = .41270475E-3
MEAN_MOTION_DOT = .7918E-4
MEAN_MOTION_DDOT = 0

CCSDS_OMM_VERS = 2.0
CREATION_DATE  = 
ORIGINATOR     = 

OBJECT_NAME    = CZ-2C R/B
OBJECT_ID      = 2007-010B
CENTER_NAME    = EARTH
REF_FRAME      = TEME
TIME_SYSTEM    = UTC
MEAN_ELEMENT_THEORY = SGP/SGP4

EPOCH          = 2025-12-06T22:35:52.815264
MEAN_MOTION    = 14.20206067
ECCENTRICITY   = .00586646
INCLINATION    = 98.3975
RA_OF_ASC_NODE = 93.8843
ARG_OF_PERICENTER = 202.9148
MEAN_ANOMALY   = 156.9410

EPHEMERIS_TYPE = 0
CLASSIFICATION_TYPE = U
NORAD_CAT_ID   = 31114
ELEMENT_SET_NO = 999
REV_AT_EPOCH   = 96655
BSTAR          = .16718096E-3
MEAN_MOTION_DOT = .322E-5
MEAN_MOTION_DDOT = 0

CCSDS_OMM_VERS = 2.0
CREATION_DATE  = 
ORIGINATOR     = 

OBJECT_NAME    = COSMO-SKYMED 1
OBJECT_ID      = 2007-023A
CENTER_NAME    = EARTH
REF_FRAME      = TEME
TIME_SYSTEM    = UTC
MEAN_ELEMENT_THEORY = SGP/SGP4

EPOCH          = 2025-12-06T23:13:58.048608
MEAN_MOTION    = 14.95700421
ECCENTRICITY   = .0001129
INCLINATION    = 97.8834
RA_OF_ASC_NODE = 166.3300
ARG_OF_PERICENTER = 78.5383
MEAN_ANOMALY   = 281.5964

EPHEMERIS_TYPE = 0
CLASSIFICATION_TYPE = U
NORAD_CAT_ID   = 31598
ELEMENT_SET_NO = 999
REV_AT_EPOCH   = 104
BSTAR          = .51668636E-3
MEAN_MOTION_DOT = .5694E-4
MEAN_MOTION_DDOT = 0

CCSDS_OMM_VERS = 2.0
CREATION_DATE  = 
ORIGINATOR     = 

OBJECT_NAME    = COSMOS 2428
OBJECT_ID      = 2007-029A
CENTER_NAME    = EARTH
REF_FRAME      = TEME
TIME_SYSTEM    = UTC
MEAN_ELEMENT_THEORY = SGP/SGP4

EPOCH          = 2025-12-06T20:41:29.213952
MEAN_MOTION    = 14.12887856
ECCENTRICITY   = .0003337
INCLINATION    = 70.9371
RA_OF_ASC_NODE = 38.2205
ARG_OF_PERICENTER = 32.2340
MEAN_ANOMALY   = 327.8984

EPHEMERIS_TYPE = 0
CLASSIFICATION_TYPE = U
NORAD_CAT_ID   = 31792
ELEMENT_SET_NO = 999
REV_AT_EPOCH   = 95098
BSTAR          = .76005047E-4
MEAN_MOTION_DOT = .94E-6
MEAN_MOTION_DDOT = 0

CCSDS_OMM_VERS = 2.0
CREATION_DATE  = 
ORIGINATOR     = 

OBJECT_NAME    = SL-16 R/B
OBJECT_ID      = 2007-029B
CENTER_NAME    = EARTH
REF_FRAME      = TEME
TIME_SYSTEM    = UTC
MEAN_ELEMENT_THEORY = SGP/SGP4

EPOCH          = 2025-12-06T12:58:42.714624
MEAN_MOTION    = 14.14815650
ECCENTRICITY   = .00023652
INCLINATION    = 70.9765
RA_OF_ASC_NODE = 8.1892
ARG_OF_PERICENTER = 264.4837
MEAN_ANOMALY   = 257.2055

EPHEMERIS_TYPE = 0
CLASSIFICATION_TYPE = U
NORAD_CAT_ID   = 31793
ELEMENT_SET_NO = 999
REV_AT_EPOCH   = 95219
BSTAR          = -.6100532E-4
MEAN_MOTION_DOT = -.166E-5
MEAN_MOTION_DDOT = 0

CCSDS_OMM_VERS = 2.0
CREATION_DATE  = 
ORIGINATOR     = 

OBJECT_NAME    = KORONAS-FOTON
OBJECT_ID      = 2009-003A
CENTER_NAME    = EARTH
REF_FRAME      = TEME
TIME_SYSTEM    = UTC
MEAN_ELEMENT_THEORY = SGP/SGP4

EPOCH          = 2025-12-06T18:44:15.182592
MEAN_MOTION    = 15.40982685
ECCENTRICITY   = .00129404
INCLINATION    = 82.4307
RA_OF_ASC_NODE = 12.2795
ARG_OF_PERICENTER = 127.2977
MEAN_ANOMALY   = 232.9451

EPHEMERIS_TYPE = 0
CLASSIFICATION_TYPE = U
NORAD_CAT_ID   = 33504
ELEMENT_SET_NO = 999
REV_AT_EPOCH   = 93142
BSTAR          = .38015221E-3
MEAN_MOTION_DOT = .15754E-3
MEAN_MOTION_DDOT = 0

CCSDS_OMM_VERS = 2.0
CREATION_DATE  = 
ORIGINATOR     = 

OBJECT_NAME    = CZ-2C R/B
OBJECT_ID      = 2011-030B
CENTER_NAME    = EARTH
REF_FRAME      = TEME
TIME_SYSTEM    = UTC
MEAN_ELEMENT_THEORY = SGP/SGP4

EPOCH          = 2025-12-06T20:22:30.301248
MEAN_MOTION    = 14.80871912
ECCENTRICITY   = .00515164
INCLINATION    = 97.8408
RA_OF_ASC_NODE = 295.0861
ARG_OF_PERICENTER = 293.3573
MEAN_ANOMALY   = 119.9737

EPHEMERIS_TYPE = 0
CLASSIFICATION_TYPE = U
NORAD_CAT_ID   = 37731
ELEMENT_SET_NO = 999
REV_AT_EPOCH   = 77635
BSTAR          = .4114842E-3
MEAN_MOTION_DOT = .3196E-4
MEAN_MOTION_DDOT = 0

CCSDS_OMM_VERS = 2.0
CREATION_DATE  = 
ORIGINATOR     = 

OBJECT_NAME    = H-2A R/B
OBJECT_ID      = 2012-025E
CENTER_NAME    = EARTH
REF_FRAME      = TEME
TIME_SYSTEM    = UTC
MEAN_ELEMENT_THEORY = SGP/SGP4

EPOCH          = 2025-12-06T21:09:18.645984
MEAN_MOTION    = 14.94387908
ECCENTRICITY   = .00438062
INCLINATION    = 98.4590
RA_OF_ASC_NODE = 295.6598
ARG_OF_PERICENTER = 255.9291
MEAN_ANOMALY   = 103.7056

EPHEMERIS_TYPE = 0
CLASSIFICATION_TYPE = U
NORAD_CAT_ID   = 38341
ELEMENT_SET_NO = 999
REV_AT_EPOCH   = 73435
BSTAR          = .52531264E-3
MEAN_MOTION_DOT = .5696E-4
MEAN_MOTION_DDOT = 0

CCSDS_OMM_VERS = 2.0
CREATION_DATE  = 
ORIGINATOR     = 

OBJECT_NAME    = SHIJIAN-16 (SJ-16)
OBJECT_ID      = 2013-057A
CENTER_NAME    = EARTH
REF_FRAME      = TEME
TIME_SYSTEM    = UTC
MEAN_ELEMENT_THEORY = SGP/SGP4

EPOCH          = 2025-12-06T21:39:42.812640
MEAN_MOTION    = 14.91962771
ECCENTRICITY   = .00175187
INCLINATION    = 74.9725
RA_OF_ASC_NODE = 0.6987
ARG_OF_PERICENTER = 333.5359
MEAN_ANOMALY   = 26.4933

EPHEMERIS_TYPE = 0
CLASSIFICATION_TYPE = U
NORAD_CAT_ID   = 39358
ELEMENT_SET_NO = 999
REV_AT_EPOCH   = 65766
BSTAR          = .20254289E-3
MEAN_MOTION_DOT = .2028E-4
MEAN_MOTION_DDOT = 0

