ALOS (DAICHI)           
1 28931U 06002A   25340.83948067  .00002976  00000+0  51057-3 0  9994
2 28931  98.1085 292.3685 0000839 112.0733 248.0562 14.69460670 59844
H-2A R/B                
1 28932U 06002B   25340.90506437  .00015650  00000+0  82480-3 0  9991
2 28932  98.2320 115.1783 0054463 196.1021 163.8480 15.14389053 80386
RESURS-DK 1             
1 29228U 06021A   25340.81068160  .00005106  00000+0  30169-3 0  9999
2 29228  69.9341 117.1593 0007734 263.3376  96.6910 15.12110904 73482
CZ-4B R/B               
1 29507U 06046C   25340.82797346  .00007918  00000+0  41270-3 0  9990
2 29507  97.5736  20.9824 0032867 227.4827 132.3629 15.15782034 45972
CZ-2C R/B               
1 31114U 07010B   25340.94158351  .00000322  00000+0  16718-3 0  9990
2 31114  98.3975  93.8843 0058664 202.9148 156.9410 14.20206067966558
COSMO-SKYMED 1          
1 31598U 07023A   25340.96803297  .00005694  00000+0  51669-3 0  9999
2 31598  97.8834 166.3300 0001129  78.5383 281.5964 14.95700421  1046
COSMOS 2428             
1 31792U 07029A   25340.86214368  .00000094  00000+0  76005-4 0  9996
2 31792  70.9371  38.2205 0003337  32.2340 327.8984 14.12887856950983
SL-16 R/B               
1 31793U 07029B   25340.54077216 -.00000166  00000+0 -61005-4 0  9997
2 31793  70.9765   8.1892 0002365 264.4837 257.2055 14.14815650952194
KORONAS-FOTON           
1 33504U 09003A   25340.78073128  .00015754  00000+0  38015-3 0  9998
2 33504  82.4307  12.2795 0012940 127.2977 232.9451 15.40982685931421
CZ-2C R/B               
1 37731U 11030B   25340.84896182  .00003196  00000+0  41148-3 0  9995
2 37731  97.8408 295.0861 0051516 293.3573 119.9737 14.80871912776356
H-2A R/B                
1 38341U 12025E   25340.88146581  .00005696  00000+0  52531-3 0  9998
2 38341  98.4590 295.6598 0043806 255.9291 103.7056 14.94387908734351
SHIJIAN-16 (SJ-16)      
1 39358U 13057A   25340.90257885  .00002028  00000+0  20254-3 0  9999
2 39358  74.9725   0.6987 0017518 333.5359  26.4933 14.91962771657661
